NORAD_CAT_ID,OBJECT_NAME,OBJECT_TYPE,EPOCH,MEAN_MOTION,ECCENTRICITY,INCLINATION,RA_OF_ASC_NODE,ARG_OF_PERICENTER,MEAN_ANOMALY,BSTAR,MEAN_MOTION_DOT,MEAN_MOTION_DDOT,TLE_LINE0,TLE_LINE1,TLE_LINE2,SEMIMAJOR_AXIS,PERIOD,APOGEE,PERIGEE,DECAYED
49758.0,STARLINK-3194,PAYLOAD,2024-06-24 02:38:59,15.08846336,0.0001449,53.2184,58.4787,101.4615,258.654,8.563e-05,1.075e-05,0.0,0 STARLINK-3194,1 49758U 21115AL  24176.11040607  .00001075  00000-0  85630-4 0  9991,2 49758  53.2184  58.4787 0001449 101.4615 258.6540 15.08846336142644,6917.861,95.437,540.728,538.724,0.0
49758.0,STARLINK-3194,PAYLOAD,2024-06-24 20:08:14,15.08831315,0.0001387,53.2175,55.2059,108.4283,251.686,4.1687e-06,-2.22e-06,0.0,0 STARLINK-3194,1 49758U 21115AL  24176.83905945 -.00000222  00000-0  41687-5 0  9994,2 49758  53.2175  55.2059 0001387 108.4283 251.6860 15.08831315142751,6917.907,95.438,540.731,538.812,0.0
49758.0,STARLINK-3194,PAYLOAD,2024-06-24 21:43:37,15.08834442,0.0001424,53.2176,54.9055,106.6799,253.435,3.2833e-05,2.35e-06,0.0,0 STARLINK-3194,1 49758U 21115AL  24176.90529667  .00000235  00000-0  32833-4 0  9990,2 49758  53.2176  54.9055 0001424 106.6799 253.4350 15.08834442141654,6917.897,95.438,540.747,538.777,0.0
49758.0,STARLINK-3194,PAYLOAD,2024-06-24 23:19:00,15.08835434,0.0001416,53.2179,54.608,99.2344,260.8808,4.0676e-05,3.59e-06,0.0,0 STARLINK-3194,1 49758U 21115AL  24176.97153639  .00000359  00000-0  40676-4 0  9990,2 49758  53.2179  54.6080 0001416  99.2344 260.8808 15.08835434141669,6917.894,95.438,540.739,538.78,0.0
49758.0,STARLINK-3194,PAYLOAD,2024-06-25 19:59:01,15.08848574,0.000128,53.218,50.7416,98.5423,261.5714,-4.6519e-05,-1.028e-05,0.0,0 STARLINK-3194,1 49758U 21115AL  24177.83265232 -.00001028  00000-0 -46519-4 0  9997,2 49758  53.2180  50.7416 0001280  98.5423 261.5714 15.08848574142901,6917.854,95.437,540.605,538.834,0.0
49758.0,STARLINK-3194,PAYLOAD,2024-06-25 21:34:24,15.08849579,0.0001338,53.2175,50.4448,81.1041,279.0102,-1.106e-05,-4.64e-06,0.0,0 STARLINK-3194,1 49758U 21115AL  24177.89889133 -.00000464  00000-0 -11060-4 0  9991,2 49758  53.2175  50.4448 0001338  81.1041 279.0102 15.08849579141804,6917.851,95.437,540.642,538.791,0.0
49758.0,STARLINK-3194,PAYLOAD,2024-06-25 23:09:47,15.08850141,0.0001433,53.2182,50.1518,80.8925,279.2229,6.2716e-05,7.11e-06,0.0,0 STARLINK-3194,1 49758U 21115AL  24177.96512895  .00000711  00000-0  62716-4 0  9994,2 49758  53.2182  50.1518 0001433  80.8925 279.2229 15.08850141141810,6917.849,95.437,540.706,538.723,0.0
49758.0,STARLINK-3194,PAYLOAD,2024-06-26 23:00:34,15.08840919,0.0001132,53.2186,45.6849,104.7431,255.3686,2.6062e-05,1.27e-06,0.0,0 STARLINK-3194,1 49758U 21115AL  24178.95873306  .00000127  00000-0  26062-4 0  9996,2 49758  53.2186  45.6849 0001132 104.7431 255.3686 15.08840919143078,6917.878,95.437,540.526,538.959,0.0
49758.0,STARLINK-3194,PAYLOAD,2024-06-27 21:15:58,15.08843554,0.0001172,53.2162,41.5293,100.329,259.7835,-5.7194e-05,-1.198e-05,0.0,0 STARLINK-3194,1 49758U 21115AL  24179.88609684 -.00001198  00000-0 -57194-4 0  9996,2 49758  53.2162  41.5293 0001172 100.3290 259.7835 15.08843554142104,6917.87,95.437,540.545,538.924,0.0
49758.0,STARLINK-3194,PAYLOAD,2024-06-28 08:23:39,15.08854087,0.0001227,53.2169,39.4463,114.6831,245.4289,-3.8884e-05,-9.07e-06,0.0,0 STARLINK-3194,1 49758U 21115AL  24180.34976676 -.00000907  00000-0 -38884-4 0  9999,2 49758  53.2169  39.4463 0001227 114.6831 245.4289 15.08854087143284,6917.837,95.437,540.551,538.854,0.0
49758.0,STARLINK-3194,PAYLOAD,2024-06-28 21:06:43,15.08857402,0.0001028,53.2166,37.0667,101.3765,258.7342,0.00025631,3.796e-05,0.0,0 STARLINK-3194,1 49758U 21115AL  24180.87967590  .00003796  00000-0  25631-3 0  9994,2 49758  53.2166  37.0667 0001028 101.3765 258.7342 15.08857402142256,6917.827,95.436,540.403,538.981,0.0
49758.0,STARLINK-3194,PAYLOAD,2024-06-28 22:42:07,15.08858839,0.0001001,53.2166,36.77,97.0618,263.0488,0.00026529,3.939e-05,0.0,0 STARLINK-3194,1 49758U 21115AL  24180.94591466  .00003939  00000-0  26529-3 0  9993,2 49758  53.2166  36.7700 0001001  97.0618 263.0488 15.08858839143378,6917.823,95.436,540.38,538.995,0.0
49758.0,STARLINK-3194,PAYLOAD,2024-06-29 14:36:01,15.08827078,0.0001177,53.2172,33.7948,102.851,257.2613,-2.2761e-05,-6.5e-06,0.0,0 STARLINK-3194,1 49758U 21115AL  24181.60834661 -.00000650  00000-0 -22761-4 0  9998,2 49758  53.2172  33.7948 0001177 102.8510 257.2613 15.08827078142360,6917.92,95.438,540.599,538.971,0.0
49758.0,STARLINK-3194,PAYLOAD,2024-06-29 19:22:10,15.08824795,0.0001125,53.2171,32.9004,109.3863,250.725,-4.3054e-05,-9.73e-06,0.0,0 STARLINK-3194,1 49758U 21115AL  24181.80707005 -.00000973  00000-0 -43054-4 0  9997,2 49758  53.2171  32.9004 0001125 109.3863 250.7250 15.08824795143504,6917.927,95.439,540.57,539.014,0.0
49758.0,STARLINK-3194,PAYLOAD,2024-06-29 20:57:34,15.08826315,0.0001072,53.2173,32.6054,87.7134,272.3981,-7.1546e-05,-1.426e-05,0.0,0 STARLINK-3194,1 49758U 21115AL  24181.87331151 -.00001426  00000-0 -71546-4 0  9990,2 49758  53.2173  32.6054 0001072  87.7134 272.3981 15.08826315142408,6917.922,95.438,540.529,539.046,0.0
49758.0,STARLINK-3194,PAYLOAD,2024-06-30 06:29:52,15.08834769,0.0001114,53.2168,30.8261,82.4394,277.6725,-8.811e-06,-4.28e-06,0.0,0 STARLINK-3194,1 49758U 21115AL  24182.27074725 -.00000428  00000-0 -88110-5 0  9993,2 49758  53.2168  30.8261 0001114  82.4394 277.6725 15.08834769143574,6917.896,95.438,540.532,538.991,0.0
49758.0,STARLINK-3194,PAYLOAD,2024-06-30 14:26:47,15.08841777,0.0001084,53.2171,29.3372,85.134,274.9776,3.942e-05,3.4e-06,0.0,0 STARLINK-3194,1 49758U 21115AL  24182.60194200  .00000340  00000-0  39420-4 0  9991,2 49758  53.2171  29.3372 0001084  85.1340 274.9776 15.08841777142517,6917.875,95.437,540.49,538.99,0.0
49758.0,STARLINK-3194,PAYLOAD,2024-06-30 20:48:19,15.08854577,0.0001244,53.2174,28.1484,72.9817,287.1311,0.00017889,2.561e-05,0.0,0 STARLINK-3194,1 49758U 21115AL  24182.86689589  .00002561  00000-0  17889-3 0  9999,2 49758  53.2174  28.1484 0001244  72.9817 287.1311 15.08854577143662,6917.836,95.437,540.561,538.84,0.0
49758.0,STARLINK-3194,PAYLOAD,2024-07-01 12:42:11,15.08838129,0.0001477,53.2172,25.1763,82.3459,277.7701,0.00031121,4.668e-05,0.0,0 STARLINK-3194,1 49758U 21115AL  24183.52930503  .00004668  00000-0  31121-3 0  9993,2 49758  53.2172  25.1763 0001477  82.3459 277.7701 15.08838129143766,6917.886,95.438,540.773,538.729,0.0
49758.0,STARLINK-3194,PAYLOAD,2024-07-01 14:17:35,15.08835789,0.0001298,53.2181,24.878,87.2312,272.8829,0.00025697,3.804e-05,0.0,0 STARLINK-3194,1 49758U 21115AL  24183.59554628  .00003804  00000-0  25697-3 0  9992,2 49758  53.2181  24.8780 0001298  87.2312 272.8829 15.08835789142668,6917.893,95.438,540.656,538.86,0.0
49758.0,STARLINK-3194,PAYLOAD,2024-07-01 20:39:07,15.08840304,0.0001231,53.2179,23.6905,94.1059,266.0073,0.00026645,3.955e-05,0.0,0 STARLINK-3194,1 49758U 21115AL  24183.86050366  .00003955  00000-0  26645-3 0  9993,2 49758  53.2179  23.6905 0001231  94.1059 266.0073 15.08840304142703,6917.879,95.438,540.596,538.893,0.0
49758.0,STARLINK-3194,PAYLOAD,2024-07-02 06:11:26,15.08843774,0.0001061,53.2171,21.9047,82.2886,277.8227,0.00014692,2.051e-05,0.0,0 STARLINK-3194,1 49758U 21115AL  24184.25794052  .00002051  00000-0  14692-3 0  9999,2 49758  53.2171  21.9047 0001061  82.2886 277.8227 15.08843774142761,6917.869,95.437,540.468,539.0,0.0
49758.0,STARLINK-3194,PAYLOAD,2024-07-02 20:29:55,15.08840126,0.0001342,53.2172,19.2263,64.1579,295.9552,-1.2826e-05,-4.92e-06,0.0,0 STARLINK-3194,1 49758U 21115AL  24184.85410926 -.00000492  00000-0 -12826-4 0  9997,2 49758  53.2172  19.2263 0001342  64.1579 295.9552 15.08840126143965,6917.88,95.438,540.673,538.817,0.0
49758.0,STARLINK-3194,PAYLOAD,2024-07-02 22:05:17,15.08843293,0.0001317,53.2169,18.9284,71.2191,288.8944,-1.0685e-05,-4.58e-06,0.0,0 STARLINK-3194,1 49758U 21115AL  24184.92034706 -.00000458  00000-0 -10685-4 0  9996,2 49758  53.2169  18.9284 0001317  71.2191 288.8944 15.08843293142863,6917.87,95.437,540.646,538.824,0.0
49758.0,STARLINK-3194,PAYLOAD,2024-07-03 20:20:39,15.08868485,9.18e-05,53.2175,14.7663,77.194,282.9155,0.00023806,3.506e-05,0.0,0 STARLINK-3194,1 49758U 21115AL  24185.84767966  .00003506  00000-0  23806-3 0  9992,2 49758  53.2175  14.7663 0000918  77.1940 282.9155 15.08868485144117,6917.793,95.436,540.293,539.023,0.0
49758.0,STARLINK-3194,PAYLOAD,2024-07-04 12:14:33,15.08824868,0.0001166,53.2164,11.7931,83.5274,276.5851,9.696e-06,-1.34e-06,0.0,0 STARLINK-3194,1 49758U 21115AL  24186.51011111 -.00000134  00000-0  96960-5 0  9999,2 49758  53.2164  11.7931 0001166  83.5274 276.5851 15.08824868144217,6917.927,95.439,540.598,538.985,0.0
49758.0,STARLINK-3194,PAYLOAD,2024-07-04 18:36:06,15.088266,9.97e-05,53.2159,10.6047,83.1128,276.9978,1.9713e-05,2.6e-07,0.0,0 STARLINK-3194,1 49758U 21115AL  24186.77507116  .00000026  00000-0  19713-4 0  9991,2 49758  53.2159  10.6047 0000997  83.1128 276.9978 15.08826600143143,6917.921,95.438,540.476,539.097,0.0
49758.0,STARLINK-3194,PAYLOAD,2024-07-05 12:05:20,15.08841438,7.42e-05,53.2169,7.3332,86.9593,273.1484,9.2464e-06,-1.4e-06,0.0,0 STARLINK-3194,1 49758U 21115AL  24187.50370377 -.00000140  00000-0  92464-5 0  9993,2 49758  53.2169   7.3332 0000742  86.9593 273.1484 15.08841438144361,6917.876,95.437,540.254,539.228,0.0
49758.0,STARLINK-3194,PAYLOAD,2024-07-05 18:26:52,15.08845667,7.52e-05,53.2173,6.1446,82.162,277.9458,4.1249e-05,3.69e-06,0.0,0 STARLINK-3194,1 49758U 21115AL  24187.76866047  .00000369  00000-0  41249-4 0  9991,2 49758  53.2173   6.1446 0000752  82.1620 277.9458 15.08845667143291,6917.863,95.437,540.248,539.208,0.0
49758.0,STARLINK-3194,PAYLOAD,2024-07-06 11:56:07,15.08829711,8.28e-05,53.2164,2.8729,94.7408,265.3679,0.00018317,2.628e-05,0.0,0 STARLINK-3194,1 49758U 21115AL  24188.49730987  .00002628  00000-0  18317-3 0  9994,2 49758  53.2164   2.8729 0000828  94.7408 265.3679 15.08829711144519,6917.912,95.438,540.35,539.204,0.0
